{
  "norad_id": 66306,
  "name": "BANDWAGON-4 OBJECT P",
  "history": [
    {
      "epoch": "2026-03-28T15:21:11.386368",
      "apogee_km": 500.22802261905144,
      "perigee_km": 482.33867814258974,
      "latitude_deg": 29.304931312595645,
      "longitude_deg": 152.01265152008273,
      "semi_major_axis_km": 6869.42035038082,
      "eccentricity": 0.0013021,
      "inclination_deg": 45.4041,
      "raan_deg": 189.3868,
      "arg_perigee_deg": 315.6803,
      "mean_anomaly_deg": 44.3042,
      "mean_motion_rev_day": 15.24834198
    }
  ]
}